start=new Date('2022-01-31T00:00:00.000Z').valueOf();
sats=[{"MEAN_MOTION_DOT":"0.00017681","GP_ID":"194980062","SITE":"AFETR","DECAY_DATE":null,"TIME_SYSTEM":"UTC","APOAPSIS":"505.520","EPHEMERIS_TYPE":"0","ARG_OF_PERICENTER":"113.1400","INCLINATION":"52.9921","RA_OF_ASC_NODE":"28.6940","EPOCH":"2022-01-30T16:57:45.287424","SEMIMAJOR_AXIS":"6882.912","NORAD_CAT_ID":"44238","MEAN_ELEMENT_THEORY":"SGP4","ELEMENT_SET_NO":"999","BSTAR":"0.00081508000000","ECCENTRICITY":"0.00010800","REV_AT_EPOCH":"14719","TLE_LINE2":"2 44238  52.9921  28.6940 0001080 113.1400 246.9708 15.20353049147199","COUNTRY_CODE":"US","MEAN_MOTION_DDOT":"0.0000000000000","CLASSIFICATION_TYPE":"U","LAUNCH_DATE":"2019-05-24","OBJECT_NAME":"STARLINK-24","FILE":"3287903","TLE_LINE1":"1 44238U 19029D   22030.70677416  .00017681  00000-0  81508-3 0  9995","PERIOD":"94.715","MEAN_ANOMALY":"246.9708","OBJECT_ID":"2019-029D","RCS_SIZE":"LARGE","REF_FRAME":"TEME","CENTER_NAME":"EARTH","OBJECT_TYPE":"PAYLOAD","PERIAPSIS":"504.034","MEAN_MOTION":"15.20353049"},{"REF_FRAME":"TEME","OBJECT_TYPE":"PAYLOAD","CENTER_NAME":"EARTH","PERIAPSIS":"476.647","MEAN_MOTION":"15.27927499","FILE":"3287903","OBJECT_NAME":"STARLINK-61","TLE_LINE1":"1 44249U 19029Q   22030.69255865  .00041841  00000-0  15177-2 0  9998","PERIOD":"94.245","RCS_SIZE":"LARGE","OBJECT_ID":"2019-029Q","MEAN_ANOMALY":"280.0894","LAUNCH_DATE":"2019-05-24","MEAN_MOTION_DDOT":"0.0000000000000","CLASSIFICATION_TYPE":"U","COUNTRY_CODE":"US","REV_AT_EPOCH":"14837","TLE_LINE2":"2 44249  52.9800 353.7743 0007818  80.0986 280.0894 15.27927499148375","EPOCH":"2022-01-30T16:37:17.067360","ELEMENT_SET_NO":"999","BSTAR":"0.00151770000000","ECCENTRICITY":"0.00078180","NORAD_CAT_ID":"44249","SEMIMAJOR_AXIS":"6860.146","MEAN_ELEMENT_THEORY":"SGP4","DECAY_DATE":null,"ARG_OF_PERICENTER":"80.0986","APOAPSIS":"487.374","EPHEMERIS_TYPE":"0","TIME_SYSTEM":"UTC","RA_OF_ASC_NODE":"353.7743","INCLINATION":"52.9800","MEAN_MOTION_DOT":"0.00041841","GP_ID":"194980312","SITE":"AFETR"},{"MEAN_MOTION_DOT":"0.00023623","GP_ID":"194981064","SITE":"AFETR","DECAY_DATE":null,"TIME_SYSTEM":"UTC","EPHEMERIS_TYPE":"0","APOAPSIS":"497.450","ARG_OF_PERICENTER":"259.1068","INCLINATION":"52.9959","RA_OF_ASC_NODE":"27.1145","EPOCH":"2022-01-30T16:19:16.567968","NORAD_CAT_ID":"44252","SEMIMAJOR_AXIS":"6874.852","MEAN_ELEMENT_THEORY":"SGP4","ELEMENT_SET_NO":"999","BSTAR":"0.00100170000000","ECCENTRICITY":"0.00010660","TLE_LINE2":"2 44252  52.9959  27.1145 0001066 259.1068 100.9808 15.23027497147853","REV_AT_EPOCH":"14785","COUNTRY_CODE":"US","MEAN_MOTION_DDOT":"0.0000000000000","CLASSIFICATION_TYPE":"U","LAUNCH_DATE":"2019-05-24","OBJECT_NAME":"STARLINK-71","FILE":"3287903","TLE_LINE1":"1 44252U 19029T   22030.68005287  .00023623  00000-0  10017-2 0  9998","PERIOD":"94.549","OBJECT_ID":"2019-029T","MEAN_ANOMALY":"100.9808","RCS_SIZE":"LARGE","REF_FRAME":"TEME","CENTER_NAME":"EARTH","OBJECT_TYPE":"PAYLOAD","MEAN_MOTION":"15.23027497","PERIAPSIS":"495.984"},{"BSTAR":"0.00119790000000","ELEMENT_SET_NO":"999","ECCENTRICITY":"0.00022260","SEMIMAJOR_AXIS":"6813.559","NORAD_CAT_ID":"44282","MEAN_ELEMENT_THEORY":"SGP4","EPOCH":"2022-01-30T20:56:15.580320","COUNTRY_CODE":"US","REV_AT_EPOCH":"14878","TLE_LINE2":"2 44282  53.0159 288.9670 0002226 196.5761 163.5171 15.43624754148785","SITE":"AFETR","GP_ID":"194981814","MEAN_MOTION_DOT":"0.00054740","INCLINATION":"53.0159","RA_OF_ASC_NODE":"288.9670","ARG_OF_PERICENTER":"196.5761","APOAPSIS":"436.941","EPHEMERIS_TYPE":"0","TIME_SYSTEM":"UTC","DECAY_DATE":null,"RCS_SIZE":"LARGE","OBJECT_ID":"2019-029AZ","MEAN_ANOMALY":"163.5171","PERIOD":"93.287","TLE_LINE1":"1 44282U 19029AZ  22030.87240255  .00054740  00000-0  11979-2 0  9990","FILE":"3287903","OBJECT_NAME":"STARLINK-80","MEAN_MOTION":"15.43624754","PERIAPSIS":"433.907","OBJECT_TYPE":"PAYLOAD","CENTER_NAME":"EARTH","REF_FRAME":"TEME","CLASSIFICATION_TYPE":"U","MEAN_MOTION_DDOT":"0.0000000000000","LAUNCH_DATE":"2019-05-24"},{"CENTER_NAME":"EARTH","OBJECT_TYPE":"PAYLOAD","REF_FRAME":"TEME","MEAN_MOTION":"15.06394068","PERIAPSIS":"546.198","PERIOD":"95.593","TLE_LINE1":"1 44713U 19074A   22030.81678460 -.00000115  00000-0  11153-4 0  9990","OBJECT_NAME":"STARLINK-1007","FILE":"3287903","OBJECT_ID":"2019-074A","MEAN_ANOMALY":"283.2388","RCS_SIZE":"LARGE","LAUNCH_DATE":"2019-11-11","MEAN_MOTION_DDOT":"0.0000000000000","CLASSIFICATION_TYPE":"U","TLE_LINE2":"2 44713  53.0526  75.3231 0001492  76.8768 283.2388 15.06394068122833","REV_AT_EPOCH":"12283","COUNTRY_CODE":"US","EPOCH":"2022-01-30T19:36:10.189440","SEMIMAJOR_AXIS":"6925.367","NORAD_CAT_ID":"44713","MEAN_ELEMENT_THEORY":"SGP4","ELEMENT_SET_NO":"999","BSTAR":"0.00001115300000","ECCENTRICITY":"0.00014920","TIME_SYSTEM":"UTC","EPHEMERIS_TYPE":"0","APOAPSIS":"548.265","ARG_OF_PERICENTER":"76.8768","DECAY_DATE":null,"RA_OF_ASC_NODE":"75.3231","INCLINATION":"53.0526","MEAN_MOTION_DOT":"-0.00000115","SITE":"AFETR","GP_ID":"194981603"},{"DECAY_DATE":null,"TIME_SYSTEM":"UTC","ARG_OF_PERICENTER":"72.7272","APOAPSIS":"548.148","EPHEMERIS_TYPE":"0","RA_OF_ASC_NODE":"76.6148","INCLINATION":"53.0551","MEAN_MOTION_DOT":"0.00002670","GP_ID":"194950512","SITE":"AFETR","TLE_LINE2":"2 44714  53.0551  76.6148 0001374  72.7272 287.3867 15.06405650122799","REV_AT_EPOCH":"12279","COUNTRY_CODE":"US","EPOCH":"2022-01-30T12:43:30.781632","NORAD_CAT_ID":"44714","SEMIMAJOR_AXIS":"6925.331","MEAN_ELEMENT_THEORY":"SGP4","BSTAR":"0.00019801000000","ECCENTRICITY":"0.00013740","ELEMENT_SET_NO":"999","LAUNCH_DATE":"2019-11-11","MEAN_MOTION_DDOT":"0.0000000000000","CLASSIFICATION_TYPE":"U","REF_FRAME":"TEME","CENTER_NAME":"EARTH","OBJECT_TYPE":"PAYLOAD","MEAN_MOTION":"15.06405650","PERIAPSIS":"546.245","OBJECT_NAME":"STARLINK-1008","FILE":"3287677","PERIOD":"95.592","TLE_LINE1":"1 44714U 19074B   22030.53021738  .00002670  00000-0  19801-3 0  9994","OBJECT_ID":"2019-074B","MEAN_ANOMALY":"287.3867","RCS_SIZE":"LARGE"},{"RCS_SIZE":"LARGE","MEAN_ANOMALY":"277.2854","OBJECT_ID":"2019-074C","FILE":"3287903","OBJECT_NAME":"STARLINK-1009","TLE_LINE1":"1 44715U 19074C   22030.85089601  .00002839  00000-0  20938-3 0  9993","PERIOD":"95.592","PERIAPSIS":"546.272","MEAN_MOTION":"15.06406264","REF_FRAME":"TEME","OBJECT_TYPE":"PAYLOAD","CENTER_NAME":"EARTH","CLASSIFICATION_TYPE":"U","MEAN_MOTION_DDOT":"0.0000000000000","LAUNCH_DATE":"2019-11-11","BSTAR":"0.00020938000000","ELEMENT_SET_NO":"999","ECCENTRICITY":"0.00013320","SEMIMAJOR_AXIS":"6925.329","NORAD_CAT_ID":"44715","MEAN_ELEMENT_THEORY":"SGP4","EPOCH":"2022-01-30T20:25:17.415264","COUNTRY_CODE":"US","TLE_LINE2":"2 44715  53.0545  75.1682 0001332  82.8286 277.2854 15.06406264122832","REV_AT_EPOCH":"12283","GP_ID":"194980102","SITE":"AFETR","MEAN_MOTION_DOT":"0.00002839","INCLINATION":"53.0545","RA_OF_ASC_NODE":"75.1682","DECAY_DATE":null,"APOAPSIS":"548.117","EPHEMERIS_TYPE":"0","ARG_OF_PERICENTER":"82.8286","TIME_SYSTEM":"UTC"},{"CENTER_NAME":"EARTH","OBJECT_TYPE":"PAYLOAD","REF_FRAME":"TEME","MEAN_MOTION":"15.06404549","PERIAPSIS":"546.316","TLE_LINE1":"1 44716U 19074D   22030.60394809  .00004335  00000-0  30969-3 0  9994","PERIOD":"95.592","OBJECT_NAME":"STARLINK-1010","FILE":"3287903","MEAN_ANOMALY":"291.4413","OBJECT_ID":"2019-074D","RCS_SIZE":"LARGE","LAUNCH_DATE":"2019-11-11","MEAN_MOTION_DDOT":"0.0000000000000","CLASSIFICATION_TYPE":"U","REV_AT_EPOCH":"12278","TLE_LINE2":"2 44716  53.0560  76.2859 0001276  68.6712 291.4413 15.06404549122788","COUNTRY_CODE":"US","EPOCH":"2022-01-30T14:29:41.114976","SEMIMAJOR_AXIS":"6925.335","NORAD_CAT_ID":"44716","MEAN_ELEMENT_THEORY":"SGP4","ECCENTRICITY":"0.00012760","BSTAR":"0.00030969000000","ELEMENT_SET_NO":"999","TIME_SYSTEM":"UTC","APOAPSIS":"548.083","ARG_OF_PERICENTER":"68.6712","EPHEMERIS_TYPE":"0","DECAY_DATE":null,"RA_OF_ASC_NODE":"76.2859","INCLINATION":"53.0560","MEAN_MOTION_DOT":"0.00004335","SITE":"AFETR","GP_ID":"194980352"},{"REF_FRAME":"TEME","OBJECT_TYPE":"PAYLOAD","CENTER_NAME":"EARTH","PERIAPSIS":"546.115","MEAN_MOTION":"15.06415085","FILE":"3287903","OBJECT_NAME":"STARLINK-1011","PERIOD":"95.591","TLE_LINE1":"1 44717U 19074E   22030.86748099  .00005266  00000-0  37198-3 0  9992","RCS_SIZE":"LARGE","MEAN_ANOMALY":"289.3650","OBJECT_ID":"2019-074E","LAUNCH_DATE":"2019-11-11","MEAN_MOTION_DDOT":"0.0000000000000","CLASSIFICATION_TYPE":"U","COUNTRY_CODE":"US","TLE_LINE2":"2 44717  53.0538  95.0830 0001519  70.7503 289.3650 15.06415085122566","REV_AT_EPOCH":"12256","EPOCH":"2022-01-30T20:49:10.357536","ECCENTRICITY":"0.00015190","BSTAR":"0.00037198000000","ELEMENT_SET_NO":"999","SEMIMAJOR_AXIS":"6925.302","NORAD_CAT_ID":"44717","MEAN_ELEMENT_THEORY":"SGP4","DECAY_DATE":null,"APOAPSIS":"548.219","ARG_OF_PERICENTER":"70.7503","EPHEMERIS_TYPE":"0","TIME_SYSTEM":"UTC","INCLINATION":"53.0538","RA_OF_ASC_NODE":"95.0830","MEAN_MOTION_DOT":"0.00005266","GP_ID":"194981104","SITE":"AFETR"},{"TLE_LINE2":"2 44718  53.0547  75.2174 0001369  76.7967 283.3174 15.06398885122834","REV_AT_EPOCH":"12283","COUNTRY_CODE":"US","EPOCH":"2022-01-30T20:09:22.004928","NORAD_CAT_ID":"44718","SEMIMAJOR_AXIS":"6925.352","MEAN_ELEMENT_THEORY":"SGP4","BSTAR":"0.00000122650000","ECCENTRICITY":"0.00013690","ELEMENT_SET_NO":"999","TIME_SYSTEM":"UTC","ARG_OF_PERICENTER":"76.7967","APOAPSIS":"548.165","EPHEMERIS_TYPE":"0","DECAY_DATE":null,"INCLINATION":"53.0547","RA_OF_ASC_NODE":"75.2174","MEAN_MOTION_DOT":"-0.00000263","SITE":"AFETR","GP_ID":"194981854","CENTER_NAME":"EARTH","OBJECT_TYPE":"PAYLOAD","REF_FRAME":"TEME","MEAN_MOTION":"15.06398885","PERIAPSIS":"546.269","TLE_LINE1":"1 44718U 19074F   22030.83983802 -.00000263  00000-0  12265-5 0  9996","PERIOD":"95.592","OBJECT_NAME":"STARLINK-1012","FILE":"3287903","OBJECT_ID":"2019-074F","MEAN_ANOMALY":"283.3174","RCS_SIZE":"LARGE","LAUNCH_DATE":"2019-11-11","MEAN_MOTION_DDOT":"0.0000000000000","CLASSIFICATION_TYPE":"U"}];
